{"type": "FeatureCollection", "features": [ {"type": "Feature", "properties": {"norad_id": 30146, "name": "FENGYUN 1C DEB", "group": "fengyun-1c-debris", "lat": -44.50978030621917, "lon": 166.05366291736115, "alt_km": 1029.9267408378228, "timestamp": "2025-12-26T09:30:53.912352+00:00", "meta": {"OBJECT_NAME": "FENGYUN 1C DEB", "OBJECT_ID": "1999-025TB", "EPOCH": "2025-12-25T23:56:07.164096", "MEAN_MOTION": 13.86619301, "ECCENTRICITY": 0.0178644, "INCLINATION": 98.0204, "RA_OF_ASC_NODE": 157.7443, "ARG_OF_PERICENTER": 86.18, "MEAN_ANOMALY": 39.0279, "EPHEMERIS_TYPE": 0, "CLASSIFICATION_TYPE": "U", "NORAD_CAT_ID": 30146, "ELEMENT_SET_NO": 999, "REV_AT_EPOCH": 95601, "BSTAR": 0.00052662, "MEAN_MOTION_DOT": 6.61e-06, "MEAN_MOTION_DDOT": 0}, "tle": {"line1": "1 30146U 99025TB  25359.99730514  .00000661  00000+0  52662-3 0  9997", "line2": "2 30146  98.0204 157.7443 0178644  86.1800  39.0279 13.86619301956012"}}, "geometry": {"type": "Point", "coordinates": [166.05366291736115, -44.50978030621917]}}, {"type": "Feature", "properties": {"norad_id": 30148, "name": "FENGYUN 1C DEB", "group": "fengyun-1c-debris", "lat": 72.17223233236295, "lon": 118.47531639063884, "alt_km": 917.846381347339, "timestamp": "2025-12-26T09:30:53.912363+00:00", "meta": {"OBJECT_NAME": "FENGYUN 1C DEB", "OBJECT_ID": "1999-025TD", "EPOCH": "2025-12-25T15:56:52.888128", "MEAN_MOTION": 13.8851459, "ECCENTRICITY": 0.0134997, "INCLINATION": 99.5456, "RA_OF_ASC_NODE": 149.2744, "ARG_OF_PERICENTER": 162.4009, "MEAN_ANOMALY": 217.1962, "EPHEMERIS_TYPE": 0, "CLASSIFICATION_TYPE": "U", "NORAD_CAT_ID": 30148, "ELEMENT_SET_NO": 999, "REV_AT_EPOCH": 95696, "BSTAR": 0.00082526, "MEAN_MOTION_DOT": 1.02e-05, "MEAN_MOTION_DDOT": 0}, "tle": {"line1": "1 30148U 99025TD  25359.66450102  .00001020  00000+0  82526-3 0  9997", "line2": "2 30148  99.5456 149.2744 0134997 162.4009 217.1962 13.88514590956969"}}, "geometry": {"type": "Point", "coordinates": [118.47531639063884, 72.17223233236295]}}, {"type": "Feature", "properties": {"norad_id": 30150, "name": "FENGYUN 1C DEB", "group": "fengyun-1c-debris", "lat": 59.31965344043773, "lon": -28.646516466961938, "alt_km": 1041.908773467193, "timestamp": "2025-12-26T09:30:53.912373+00:00", "meta": {"OBJECT_NAME": "FENGYUN 1C DEB", "OBJECT_ID": "1999-025TF", "EPOCH": "2025-12-25T23:08:22.705152", "MEAN_MOTION": 13.86610713, "ECCENTRICITY": 0.0146418, "INCLINATION": 98.995, "RA_OF_ASC_NODE": 135.4536, "ARG_OF_PERICENTER": 300.1717, "MEAN_ANOMALY": 182.4282, "EPHEMERIS_TYPE": 0, "CLASSIFICATION_TYPE": "U", "NORAD_CAT_ID": 30150, "ELEMENT_SET_NO": 999, "REV_AT_EPOCH": 95641, "BSTAR": 0.00053103, "MEAN_MOTION_DOT": 6.28e-06, "MEAN_MOTION_DDOT": 0}, "tle": {"line1": "1 30150U 99025TF  25359.96415168  .00000628  00000+0  53103-3 0  9998", "line2": "2 30150  98.9950 135.4536 0146418 300.1717 182.4282 13.86610713956419"}}, "geometry": {"type": "Point", "coordinates": [-28.646516466961938, 59.31965344043773]}}, {"type": "Feature", "properties": {"norad_id": 30151, "name": "FENGYUN 1C DEB", "group": "fengyun-1c-debris", "lat": 4.1731670558200005, "lon": -171.43027114634057, "alt_km": 900.5687275684841, "timestamp": "2025-12-26T09:30:53.912384+00:00", "meta": {"OBJECT_NAME": "FENGYUN 1C DEB", "OBJECT_ID": "1999-025TG", "EPOCH": "2025-12-26T00:15:21.487104", "MEAN_MOTION": 13.84489399, "ECCENTRICITY": 0.0163267, "INCLINATION": 99.0629, "RA_OF_ASC_NODE": 7.53, "ARG_OF_PERICENTER": 242.986, "MEAN_ANOMALY": 172.5646, "EPHEMERIS_TYPE": 0, "CLASSIFICATION_TYPE": "U", "NORAD_CAT_ID": 30151, "ELEMENT_SET_NO": 999, "REV_AT_EPOCH": 95429, "BSTAR": 0.00047783, "MEAN_MOTION_DOT": 5.5e-06, "MEAN_MOTION_DDOT": 0}, "tle": {"line1": "1 30151U 99025TG  25360.01066536  .00000550  00000+0  47783-3 0  9999", "line2": "2 30151  99.0629   7.5300 0163267 242.9860 172.5646 13.84489399954296"}}, "geometry": {"type": "Point", "coordinates": [-171.43027114634057, 4.1731670558200005]}}, {"type": "Feature", "properties": {"norad_id": 30152, "name": "FENGYUN 1C DEB", "group": "fengyun-1c-debris", "lat": -2.948998433608114, "lon": 37.507258901709214, "alt_km": 990.9177510698592, "timestamp": "2025-12-26T09:30:53.912394+00:00", "meta": {"OBJECT_NAME": "FENGYUN 1C DEB", "OBJECT_ID": "1999-025TH", "EPOCH": "2025-12-26T01:46:42.629664", "MEAN_MOTION": 13.96779264, "ECCENTRICITY": 0.016252, "INCLINATION": 99.0808, "RA_OF_ASC_NODE": 217.661, "ARG_OF_PERICENTER": 48.7756, "MEAN_ANOMALY": 312.7284, "EPHEMERIS_TYPE": 0, "CLASSIFICATION_TYPE": "U", "NORAD_CAT_ID": 30152, "ELEMENT_SET_NO": 999, "REV_AT_EPOCH": 95564, "BSTAR": 0.0020797, "MEAN_MOTION_DOT": 3.187e-05, "MEAN_MOTION_DDOT": 0}, "tle": {"line1": "1 30152U 99025TH  25360.07410451  .00003187  00000+0  20797-2 0  9999", "line2": "2 30152  99.0808 217.6610 0162520  48.7756 312.7284 13.96779264955643"}}, "geometry": {"type": "Point", "coordinates": [37.507258901709214, -2.948998433608114]}}, {"type": "Feature", "properties": {"norad_id": 30153, "name": "FENGYUN 1C DEB", "group": "fengyun-1c-debris", "lat": 19.098099911194627, "lon": -11.478641314091751, "alt_km": 869.0731097074467, "timestamp": "2025-12-26T09:30:53.912405+00:00", "meta": {"OBJECT_NAME": "FENGYUN 1C DEB", "OBJECT_ID": "1999-025TJ", "EPOCH": "2025-12-25T13:07:42.775104", "MEAN_MOTION": 13.78805876, "ECCENTRICITY": 0.0200421, "INCLINATION": 100.468, "RA_OF_ASC_NODE": 351.2543, "ARG_OF_PERICENTER": 333.1228, "MEAN_ANOMALY": 150.5263, "EPHEMERIS_TYPE": 0, "CLASSIFICATION_TYPE": "U", "NORAD_CAT_ID": 30153, "ELEMENT_SET_NO": 999, "REV_AT_EPOCH": 94951, "BSTAR": 0.0012457, "MEAN_MOTION_DOT": 1.419e-05, "MEAN_MOTION_DDOT": 0}, "tle": {"line1": "1 30153U 99025TJ  25359.54702286  .00001419  00000+0  12457-2 0  9990", "line2": "2 30153 100.4680 351.2543 0200421 333.1228 150.5263 13.78805876949510"}}, "geometry": {"type": "Point", "coordinates": [-11.478641314091751, 19.098099911194627]}}, {"type": "Feature", "properties": {"norad_id": 30154, "name": "FENGYUN 1C DEB", "group": "fengyun-1c-debris", "lat": -78.36048343337481, "lon": 174.68104432002772, "alt_km": 971.6202879884268, "timestamp": "2025-12-26T09:30:53.912415+00:00", "meta": {"OBJECT_NAME": "FENGYUN 1C DEB", "OBJECT_ID": "1999-025TK", "EPOCH": "2025-12-25T01:22:36.190848", "MEAN_MOTION": 13.86034557, "ECCENTRICITY": 0.01829961, "INCLINATION": 98.4485, "RA_OF_ASC_NODE": 39.6514, "ARG_OF_PERICENTER": 165.2487, "MEAN_ANOMALY": 256.5877, "EPHEMERIS_TYPE": 0, "CLASSIFICATION_TYPE": "U", "NORAD_CAT_ID": 30154, "ELEMENT_SET_NO": 999, "REV_AT_EPOCH": 95155, "BSTAR": 0.0015704438, "MEAN_MOTION_DOT": 2.024e-05, "MEAN_MOTION_DDOT": 0}, "tle": {"line1": "1 30154U 99025TK  25359.05736332  .00002024  00000+0  15704-2 0  9997", "line2": "2 30154  98.4485  39.6514 0182996 165.2487 256.5877 13.86034557951556"}}, "geometry": {"type": "Point", "coordinates": [174.68104432002772, -78.36048343337481]}}, {"type": "Feature", "properties": {"norad_id": 30155, "name": "FENGYUN 1C DEB", "group": "fengyun-1c-debris", "lat": -57.96913595557776, "lon": -121.75155890484079, "alt_km": 924.8258960267895, "timestamp": "2025-12-26T09:30:53.912426+00:00", "meta": {"OBJECT_NAME": "FENGYUN 1C DEB", "OBJECT_ID": "1999-025TL", "EPOCH": "2025-12-26T03:05:14.847648", "MEAN_MOTION": 13.73858555, "ECCENTRICITY": 0.0242849, "INCLINATION": 99.7512, "RA_OF_ASC_NODE": 73.9289, "ARG_OF_PERICENTER": 308.9373, "MEAN_ANOMALY": 49.0352, "EPHEMERIS_TYPE": 0, "CLASSIFICATION_TYPE": "U", "NORAD_CAT_ID": 30155, "ELEMENT_SET_NO": 999, "REV_AT_EPOCH": 94048, "BSTAR": 0.0019715, "MEAN_MOTION_DOT": 2.236e-05, "MEAN_MOTION_DDOT": 0}, "tle": {"line1": "1 30155U 99025TL  25360.12864407  .00002236  00000+0  19715-2 0  9994", "line2": "2 30155  99.7512  73.9289 0242849 308.9373  49.0352 13.73858555940487"}}, "geometry": {"type": "Point", "coordinates": [-121.75155890484079, -57.96913595557776]}}, {"type": "Feature", "properties": {"norad_id": 30156, "name": "FENGYUN 1C DEB", "group": "fengyun-1c-debris", "lat": 62.150637210134946, "lon": 163.93308390599046, "alt_km": 1001.1140847990055, "timestamp": "2025-12-26T09:30:53.912436+00:00", "meta": {"OBJECT_NAME": "FENGYUN 1C DEB", "OBJECT_ID": "1999-025TM", "EPOCH": "2025-12-25T21:02:03.495840", "MEAN_MOTION": 13.80848893, "ECCENTRICITY": 0.01984465, "INCLINATION": 98.9193, "RA_OF_ASC_NODE": 326.1507, "ARG_OF_PERICENTER": 227.4639, "MEAN_ANOMALY": 187.4376, "EPHEMERIS_TYPE": 0, "CLASSIFICATION_TYPE": "U", "NORAD_CAT_ID": 30156, "ELEMENT_SET_NO": 999, "REV_AT_EPOCH": 94872, "BSTAR": 0.001096244, "MEAN_MOTION_DOT": 1.298e-05, "MEAN_MOTION_DDOT": 0}, "tle": {"line1": "1 30156U 99025TM  25359.87642935  .00001298  00000+0  10962-2 0  9997", "line2": "2 30156  98.9193 326.1507 0198446 227.4639 187.4376 13.80848893948723"}}, "geometry": {"type": "Point", "coordinates": [163.93308390599046, 62.150637210134946]}}, {"type": "Feature", "properties": {"norad_id": 30157, "name": "FENGYUN 1C DEB", "group": "fengyun-1c-debris", "lat": -43.60183249466264, "lon": 106.1870353091703, "alt_km": 772.7801523511926, "timestamp": "2025-12-26T09:30:53.912447+00:00", "meta": {"OBJECT_NAME": "FENGYUN 1C DEB", "OBJECT_ID": "1999-025TN", "EPOCH": "2025-12-24T06:30:03.653568", "MEAN_MOTION": 14.45252792, "ECCENTRICITY": 0.00369606, "INCLINATION": 98.7145, "RA_OF_ASC_NODE": 95.607, "ARG_OF_PERICENTER": 159.967, "MEAN_ANOMALY": 262.7951, "EPHEMERIS_TYPE": 0, "CLASSIFICATION_TYPE": "U", "NORAD_CAT_ID": 30157, "ELEMENT_SET_NO": 999, "REV_AT_EPOCH": 98239, "BSTAR": 0.0021716886, "MEAN_MOTION_DOT": 7.642e-05, "MEAN_MOTION_DDOT": 0}, "tle": {"line1": "1 30157U 99025TN  25358.27087562  .00007642  00000+0  21717-2 0  9999", "line2": "2 30157  98.7145  95.6070 0036960 159.9670 262.7951 14.45252792982394"}}, "geometry": {"type": "Point", "coordinates": [106.1870353091703, -43.60183249466264]}}]}